[{"OBJECT_NAME":"PATHFINDER 1","OBJECT_ID":"2016-059E","EPOCH":"2026-03-15T06:04:53.298624","MEAN_MOTION":14.67529278,"ECCENTRICITY":0.0029346,"INCLINATION":97.8179,"RA_OF_ASC_NODE":77.7746,"ARG_OF_PERICENTER":143.472,"MEAN_ANOMALY":216.8495,"EPHEMERIS_TYPE":0,"CLASSIFICATION_TYPE":"U","NORAD_CAT_ID":41787,"ELEMENT_SET_NO":999,"REV_AT_EPOCH":50593,"BSTAR":0.00015219911,"MEAN_MOTION_DOT":8.22e-6,"MEAN_MOTION_DDOT":0},{"OBJECT_NAME":"SCATSAT 1","OBJECT_ID":"2016-059H","EPOCH":"2026-03-15T01:33:54.819648","MEAN_MOTION":14.79283224,"ECCENTRICITY":0.00547489,"INCLINATION":98.1294,"RA_OF_ASC_NODE":136.8362,"ARG_OF_PERICENTER":190.0708,"MEAN_ANOMALY":169.9411,"EPHEMERIS_TYPE":0,"CLASSIFICATION_TYPE":"U","NORAD_CAT_ID":41790,"ELEMENT_SET_NO":999,"REV_AT_EPOCH":8767,"BSTAR":0.00022412814,"MEAN_MOTION_DOT":1.652e-5,"MEAN_MOTION_DDOT":0},{"OBJECT_NAME":"GOKTURK 1A","OBJECT_ID":"2016-073A","EPOCH":"2026-03-15T06:12:50.426208","MEAN_MOTION":14.6275557,"ECCENTRICITY":0.00013511,"INCLINATION":98.1356,"RA_OF_ASC_NODE":330.3534,"ARG_OF_PERICENTER":77.4391,"MEAN_ANOMALY":282.6962,"EPHEMERIS_TYPE":0,"CLASSIFICATION_TYPE":"U","NORAD_CAT_ID":41875,"ELEMENT_SET_NO":999,"REV_AT_EPOCH":49509,"BSTAR":9.6071599e-5,"MEAN_MOTION_DOT":4.43e-6,"MEAN_MOTION_DDOT":0},{"OBJECT_NAME":"RESOURCESAT-2A","OBJECT_ID":"2016-074A","EPOCH":"2026-03-15T06:01:24.831840","MEAN_MOTION":14.21603329,"ECCENTRICITY":0.00021795,"INCLINATION":98.7595,"RA_OF_ASC_NODE":148.5004,"ARG_OF_PERICENTER":23.3126,"MEAN_ANOMALY":336.8149,"EPHEMERIS_TYPE":0,"CLASSIFICATION_TYPE":"U","NORAD_CAT_ID":41877,"ELEMENT_SET_NO":999,"REV_AT_EPOCH":48095,"BSTAR":0.00012438457,"MEAN_MOTION_DOT":2.28e-6,"MEAN_MOTION_DDOT":0},{"OBJECT_NAME":"CARTOSAT-2D","OBJECT_ID":"2017-008A","EPOCH":"2026-03-12T20:47:41.284320","MEAN_MOTION":15.19280641,"ECCENTRICITY":0.00045114,"INCLINATION":97.4226,"RA_OF_ASC_NODE":132.9125,"ARG_OF_PERICENTER":206.0706,"MEAN_ANOMALY":154.0302,"EPHEMERIS_TYPE":0,"CLASSIFICATION_TYPE":"U","NORAD_CAT_ID":41948,"ELEMENT_SET_NO":999,"REV_AT_EPOCH":50295,"BSTAR":2.00802e-6,"MEAN_MOTION_DOT":-2.5e-7,"MEAN_MOTION_DDOT":0},{"OBJECT_NAME":"SENTINEL-2B","OBJECT_ID":"2017-013A","EPOCH":"2026-03-15T06:59:36.138336","MEAN_MOTION":14.30821905,"ECCENTRICITY":0.00011518,"INCLINATION":98.5647,"RA_OF_ASC_NODE":150.4039,"ARG_OF_PERICENTER":97.6454,"MEAN_ANOMALY":262.486,"EPHEMERIS_TYPE":0,"CLASSIFICATION_TYPE":"U","NORAD_CAT_ID":42063,"ELEMENT_SET_NO":999,"REV_AT_EPOCH":47121,"BSTAR":1.3760931e-5,"MEAN_MOTION_DOT":-8.0e-8,"MEAN_MOTION_DDOT":0},{"OBJECT_NAME":"CARTOSAT-2E","OBJECT_ID":"2017-036C","EPOCH":"2026-03-14T01:39:23.888736","MEAN_MOTION":15.19224887,"ECCENTRICITY":0.00025802,"INCLINATION":97.4397,"RA_OF_ASC_NODE":134.3841,"ARG_OF_PERICENTER":284.3598,"MEAN_ANOMALY":75.7351,"EPHEMERIS_TYPE":0,"CLASSIFICATION_TYPE":"U","NORAD_CAT_ID":42767,"ELEMENT_SET_NO":999,"REV_AT_EPOCH":48370,"BSTAR":-9.746139e-6,"MEAN_MOTION_DOT":-2.72e-6,"MEAN_MOTION_DDOT":0},{"OBJECT_NAME":"FORMOSAT-5","OBJECT_ID":"2017-049A","EPOCH":"2026-03-15T06:12:51.274656","MEAN_MOTION":14.50824703,"ECCENTRICITY":0.00113657,"INCLINATION":98.2303,"RA_OF_ASC_NODE":151.6462,"ARG_OF_PERICENTER":20.2489,"MEAN_ANOMALY":339.9154,"EPHEMERIS_TYPE":0,"CLASSIFICATION_TYPE":"U","NORAD_CAT_ID":42920,"ELEMENT_SET_NO":999,"REV_AT_EPOCH":45305,"BSTAR":6.1367871e-5,"MEAN_MOTION_DOT":1.98e-6,"MEAN_MOTION_DDOT":0},{"OBJECT_NAME":"SENTINEL-5P","OBJECT_ID":"2017-064A","EPOCH":"2026-03-15T02:27:36.355968","MEAN_MOTION":14.19500794,"ECCENTRICITY":0.00011025,"INCLINATION":98.789,"RA_OF_ASC_NODE":16.9196,"ARG_OF_PERICENTER":93.543,"MEAN_ANOMALY":266.5872,"EPHEMERIS_TYPE":0,"CLASSIFICATION_TYPE":"U","NORAD_CAT_ID":42969,"ELEMENT_SET_NO":999,"REV_AT_EPOCH":43621,"BSTAR":7.0935184e-5,"MEAN_MOTION_DOT":1.05e-6,"MEAN_MOTION_DDOT":0},{"OBJECT_NAME":"SKYSAT-C11","OBJECT_ID":"2017-068A","EPOCH":"2026-03-15T06:13:35.042304","MEAN_MOTION":15.52809023,"ECCENTRICITY":4.048e-5,"INCLINATION":97.4205,"RA_OF_ASC_NODE":219.4304,"ARG_OF_PERICENTER":84.4395,"MEAN_ANOMALY":275.6904,"EPHEMERIS_TYPE":0,"CLASSIFICATION_TYPE":"U","NORAD_CAT_ID":42987,"ELEMENT_SET_NO":999,"REV_AT_EPOCH":46864,"BSTAR":0.00058856619,"MEAN_MOTION_DOT":0.00036462,"MEAN_MOTION_DDOT":0},{"OBJECT_NAME":"SKYSAT-C10","OBJECT_ID":"2017-068B","EPOCH":"2026-03-15T06:44:35.631744","MEAN_MOTION":15.32829839,"ECCENTRICITY":0.00010078,"INCLINATION":97.4339,"RA_OF_ASC_NODE":210.4195,"ARG_OF_PERICENTER":95.5217,"MEAN_ANOMALY":264.614,"EPHEMERIS_TYPE":0,"CLASSIFICATION_TYPE":"U","NORAD_CAT_ID":42988,"ELEMENT_SET_NO":999,"REV_AT_EPOCH":46796,"BSTAR":0.00040367222,"MEAN_MOTION_DOT":0.00012728,"MEAN_MOTION_DDOT":0},{"OBJECT_NAME":"SKYSAT-C9","OBJECT_ID":"2017-068C","EPOCH":"2026-03-15T04:11:38.800896","MEAN_MOTION":15.39086726,"ECCENTRICITY":0.00099326,"INCLINATION":97.4264,"RA_OF_ASC_NODE":210.3962,"ARG_OF_PERICENTER":114.8778,"MEAN_ANOMALY":245.3501,"EPHEMERIS_TYPE":0,"CLASSIFICATION_TYPE":"U","NORAD_CAT_ID":42989,"ELEMENT_SET_NO":999,"REV_AT_EPOCH":46828,"BSTAR":0.00046979053,"MEAN_MOTION_DOT":0.00018158,"MEAN_MOTION_DDOT":0},{"OBJECT_NAME":"SKYSAT-C8","OBJECT_ID":"2017-068D","EPOCH":"2026-03-14T22:21:45.418752","MEAN_MOTION":15.34925793,"ECCENTRICITY":0.00012681,"INCLINATION":97.4356,"RA_OF_ASC_NODE":209.5255,"ARG_OF_PERICENTER":97.5862,"MEAN_ANOMALY":262.5526,"EPHEMERIS_TYPE":0,"CLASSIFICATION_TYPE":"U","NORAD_CAT_ID":42990,"ELEMENT_SET_NO":999,"REV_AT_EPOCH":46784,"BSTAR":0.00045684975,"MEAN_MOTION_DOT":0.00015408,"MEAN_MOTION_DDOT":0},{"OBJECT_NAME":"SKYSAT-C7","OBJECT_ID":"2017-068E","EPOCH":"2026-03-15T02:49:21.536832","MEAN_MOTION":15.348831,"ECCENTRICITY":0.00072694,"INCLINATION":97.4369,"RA_OF_ASC_NODE":210.6959,"ARG_OF_PERICENTER":87.6667,"MEAN_ANOMALY":272.5409,"EPHEMERIS_TYPE":0,"CLASSIFICATION_TYPE":"U","NORAD_CAT_ID":42991,"ELEMENT_SET_NO":999,"REV_AT_EPOCH":46793,"BSTAR":0.00044873963,"MEAN_MOTION_DOT":0.00015123,"MEAN_MOTION_DDOT":0},{"OBJECT_NAME":"SKYSAT-C6","OBJECT_ID":"2017-068F","EPOCH":"2026-03-15T02:55:26.518944","MEAN_MOTION":15.32643579,"ECCENTRICITY":0.00037322,"INCLINATION":97.4403,"RA_OF_ASC_NODE":210.9694,"ARG_OF_PERICENTER":114.7739,"MEAN_ANOMALY":245.3892,"EPHEMERIS_TYPE":0,"CLASSIFICATION_TYPE":"U","NORAD_CAT_ID":42992,"ELEMENT_SET_NO":999,"REV_AT_EPOCH":46790,"BSTAR":0.00043609955,"MEAN_MOTION_DOT":0.0001368,"MEAN_MOTION_DDOT":0},{"OBJECT_NAME":"CARTOSAT-2F","OBJECT_ID":"2018-004A","EPOCH":"2026-03-15T06:52:29.358624","MEAN_MOTION":15.19327071,"ECCENTRICITY":0.00015495,"INCLINATION":97.4157,"RA_OF_ASC_NODE":135.3458,"ARG_OF_PERICENTER":179.7805,"MEAN_ANOMALY":180.3431,"EPHEMERIS_TYPE":0,"CLASSIFICATION_TYPE":"U","NORAD_CAT_ID":43111,"ELEMENT_SET_NO":999,"REV_AT_EPOCH":45307,"BSTAR":0.00027166687,"MEAN_MOTION_DOT":5.672e-5,"MEAN_MOTION_DDOT":0}]
