PATHFINDER 1            
1 41787U 16059E   26074.25339466  .00000822  00000+0  15220-3 0  9999
2 41787  97.8179  77.7746 0029346 143.4720 216.8495 14.67529278505931
SCATSAT 1               
1 41790U 16059H   26074.06521782  .00001652  00000+0  22413-3 0  9990
2 41790  98.1294 136.8362 0054748 190.0708 169.9411 14.79283224 87679
GOKTURK 1A              
1 41875U 16073A   26074.25891697  .00000443  00000+0  96072-4 0  9996
2 41875  98.1356 330.3534 0001351  77.4391 282.6962 14.62755570495095
RESOURCESAT-2A          
1 41877U 16074A   26074.25098185  .00000228  00000+0  12438-3 0  9994
2 41877  98.7595 148.5004 0002179  23.3126 336.8149 14.21603329480951
CARTOSAT-2D             
1 41948U 17008A   26071.86645005 -.00000025  00000+0  20080-5 0  9994
2 41948  97.4226 132.9125 0004511 206.0706 154.0302 15.19280641502956
SENTINEL-2B             
1 42063U 17013A   26074.29139049 -.00000008  00000+0  13761-4 0  9993
2 42063  98.5647 150.4039 0001151  97.6454 262.4860 14.30821905471217
CARTOSAT-2E             
1 42767U 17036C   26073.06902649 -.00000272  00000+0 -97461-5 0  9991
2 42767  97.4397 134.3841 0002580 284.3598  75.7351 15.19224887483702
FORMOSAT-5              
1 42920U 17049A   26074.25892679  .00000198  00000+0  61368-4 0  9990
2 42920  98.2303 151.6462 0011365  20.2489 339.9154 14.50824703453055
SENTINEL-5P             
1 42969U 17064A   26074.10250412  .00000105  00000+0  70935-4 0  9995
2 42969  98.7890  16.9196 0001102  93.5430 266.5872 14.19500794436215
SKYSAT-C11              
1 42987U 17068A   26074.25943336  .00036462  00000+0  58857-3 0  9992
2 42987  97.4205 219.4304 0000404  84.4395 275.6904 15.52809023468649
SKYSAT-C10              
1 42988U 17068B   26074.28096796  .00012728  00000+0  40367-3 0  9991
2 42988  97.4339 210.4195 0001007  95.5217 264.6140 15.32829839467962
SKYSAT-C9               
1 42989U 17068C   26074.17475464  .00018158  00000+0  46979-3 0  9991
2 42989  97.4264 210.3962 0009932 114.8778 245.3501 15.39086726468283
SKYSAT-C8               
1 42990U 17068D   26073.93177568  .00015408  00000+0  45685-3 0  9998
2 42990  97.4356 209.5255 0001268  97.5862 262.5526 15.34925793467847
SKYSAT-C7               
1 42991U 17068E   26074.11761038  .00015123  00000+0  44874-3 0  9994
2 42991  97.4369 210.6959 0007269  87.6667 272.5409 15.34883100467932
SKYSAT-C6               
1 42992U 17068F   26074.12183471  .00013680  00000+0  43610-3 0  9998
2 42992  97.4403 210.9694 0003732 114.7739 245.3892 15.32643579467907
CARTOSAT-2F             
1 43111U 18004A   26074.28645091  .00005672  00000+0  27167-3 0  9992
2 43111  97.4157 135.3458 0001549 179.7805 180.3431 15.19327071453075
